HODOYOSHI-4             
1 40011U 14033B   25070.15643575  .00002564  00000+0  29572-3 0  9991
2 40011  97.5598 272.6604 0025302  41.4449 318.8680 14.86266735579997
DEIMOS-2                
1 40013U 14033D   25070.17800296  .00002962  00000+0  30168-3 0  9995
2 40013  97.6482 314.7602 0002377  77.4928 282.6557 14.91445806581523
HODOYOSHI-3             
1 40015U 14033F   25070.06796160  .00003000  00000+0  36721-3 0  9994
2 40015  97.6030 248.5079 0035165  79.7260 280.7917 14.83466197578938
SPOT 7                  
1 40053U 14034A   25070.16729061  .00001018  00000+0  22046-3 0  9996
2 40053  98.1221 138.1354 0001101 105.1532 254.9790 14.60261928569568
SKYSAT-B                
1 40072U 14037D   25069.79532951  .00002705  00000+0  31596-3 0  9991
2 40072  98.3374 359.6904 0005683 356.2483   3.8688 14.86046655577094
WORLDVIEW-3 (WV-3)      
1 40115U 14048A   25069.86816327  .00002113  00000+0  25501-3 0  9993
2 40115  97.8659 145.5394 0006335  58.6498 301.5336 14.84835698573175
GAOFEN-2                
1 40118U 14049A   25070.16965686  .00002090  00000+0  27954-3 0  9993
2 40118  98.0723 128.3093 0004140 263.5411  96.5330 14.80569942570738
YAOGAN-21               
1 40143U 14053A   25070.20291939  .00010897  00000+0  45486-3 0  9998
2 40143  97.2134 124.7866 0014239 323.7106  36.3165 15.23727901584474
YAOGAN-22               
1 40275U 14063A   25070.10664695  .00000007  00000+0  14237-3 0  9999
2 40275 100.6978 210.1738 0006761 149.7066 210.4437 13.15504873498926
ASNARO                  
1 40298U 14070A   25070.16963030  .00016093  00000+0  75052-3 0  9997
2 40298  97.3848 152.4647 0002059 123.0290 237.1143 15.19941243573719
HODOYOSHI-1             
1 40299U 14070B   25070.11474792  .02310884  22718-5  72687-3 0  9999
2 40299  97.0645 139.6666 0005674 253.1551 106.9120 16.26489027576921
YAOGAN-24               
1 40310U 14072A   25070.18919297  .00001760  00000+0  26211-3 0  9990
2 40310  98.0832 200.4399 0011982 315.7953  44.2298 14.76145342555439
CBERS 4                 
1 40336U 14079A   25070.21865759  .00000295  00000+0  11718-3 0  9990
2 40336  98.3641 137.1058 0000688 127.3173 232.8076 14.35490560537550
YAOGAN-26               
1 40362U 14088A   25070.16374150  .00016235  00000+0  57371-3 0  9999
2 40362  97.0700  82.6834 0003431 287.2393  72.8472 15.29259259567991
SMAP                    
1 40376U 15003A   25069.90000015  .00001144  00000+0  23083-3 0  9994
2 40376  98.1308  78.5187 0001556  97.4397 262.6982 14.63316143539861
KOMPSAT-3A              
1 40536U 15014A   25070.15679963  .00017954  00000+0  56563-3 0  9992
2 40536  97.6466  32.2892 0005225  87.9304 272.2536 15.32958194550452
SENTINEL-2A             
1 40697U 15028A   25070.20765076  .00000286  00000+0  12574-3 0  9996
2 40697  98.5672 146.6900 0001152  97.5245 262.6069 14.30813011507524
GAOFEN-8                
1 40701U 15030A   25070.15997912  .00019145  00000+0  69535-3 0  9998
2 40701  97.6796 237.1575 0013124  37.3430 322.8718 15.28262926540327
CARBONITE 1 (CBNT-1)    
1 40718U 15032D   25070.15632358  .00003430  00000+0  44684-3 0  9996
2 40718  97.6462 263.6449 0015291  16.9822 343.1899 14.81130320520744
YAOGAN-27               
1 40878U 15040A   25070.20949399 -.00000009  00000+0  88628-4 0  9991
2 40878 100.0869  72.5061 0008042 198.5609 161.5212 13.16043190458278
GAOFEN-9 01             
1 40894U 15047A   25070.17300306  .00002018  00000+0  26251-3 0  9995
2 40894  97.6910 120.5729 0027389 214.5488 145.3946 14.81465608511604
YAOGAN-28               
1 41026U 15064A   25070.21912792  .00012831  00000+0  53179-3 0  9998
2 41026  97.2411 216.7811 0009962 353.7051   6.4060 15.23977997520142
YAOGAN-29               
1 41038U 15069A   25070.19337179  .00000955  00000+0  12579-3 0  9996
2 41038  98.0433  92.1179 0002964  91.2726 268.8826 14.82458075502014
KENT RIDGE 1            
1 41167U 15077B   25069.44872981  .00006795  00000+0  28125-3 0  9991
2 41167  14.9806 104.3962 0009379 195.0737 164.9305 15.18931180510375
TELEOS-1                
1 41169U 15077D   25069.90586333  .00092370  00000+0  10782-2 0  9990
2 41169  14.9776 289.6430 0001682 150.6173 209.4249 15.59745826512100
GAOFEN-4                
1 41194U 15083A   25069.84913553 -.00000352  00000+0  00000+0 0  9995
2 41194   0.0953 293.0840 0001983  85.6069 201.3958  1.00269038 33888
JASON-3                 
1 41240U 16002A   25069.93984810 -.00000038  00000+0  97957-4 0  9996
2 41240  66.0446  17.5124 0008034 273.4624  86.5472 12.80931657427661
SENTINEL-3A             
1 41335U 16011A   25070.21897174  .00000272  00000+0  13043-3 0  9992
2 41335  98.6190 139.1758 0001258  97.8562 262.2761 14.26740829472044
ZIYUAN 3-2 (ZY 3-2)     
1 41556U 16033A   25070.20429535  .00010082  00000+0  45460-3 0  9990
2 41556  97.4263 148.5321 0007610 124.4551 235.7405 15.21193941487599
CARTOSAT-2C             
1 41599U 16040A   25070.16899773  .00007405  00000+0  35295-3 0  9995
2 41599  97.4354 131.8262 0012395 299.2673  60.7322 15.19336223483418
SKYSAT-C1               
1 41601U 16040C   25069.67498832  .00013001  00000+0  44623-3 0  9998
2 41601  97.0209 122.4498 0003562 120.3929 239.7665 15.30255979486904
LAPAN-A3                
1 41603U 16040E   25070.21246664  .00005323  00000+0  19236-3 0  9996
2 41603  97.1396  78.4112 0009750 224.2388 135.8074 15.28826457483971
BIROS                   
1 41604U 16040F   25069.64490086  .00032134  00000+0  48224-3 0  9990
2 41604  97.0978  98.7909 0007844 140.1352 220.0480 15.54813675485332
GAOFEN-3                
1 41727U 16049A   25070.19230302  .00000198  00000+0  73194-4 0  9990
2 41727  98.4067  79.8983 0001363  87.1545 272.9801 14.42227859451906
SKYSAT-C4               
1 41771U 16058B   25069.67843334  .00014204  00000+0  42710-3 0  9997
2 41771  96.9658 109.4267 0003486  87.3770 272.7874 15.34481817474090
SKYSAT-C5               
1 41772U 16058C   25069.70852601  .00016808  00000+0  46564-3 0  9992
2 41772  97.1156 123.3684 0005411  38.5768 321.5863 15.37016058472633
SKYSAT-C2               
1 41773U 16058D   25069.65470245  .00013095  00000+0  43511-3 0  9991
2 41773  96.9751 106.9112 0002251 107.7195 252.4293 15.31308021473893
SKYSAT-C3               
1 41774U 16058E   25069.70940645  .00015324  00000+0  43905-3 0  9998
2 41774  96.9686 117.6349 0003139   2.4373 357.6887 15.35989818474641
ALSAT 1B                
1 41785U 16059C   25070.18875691  .00000846  00000+0  14332-3 0  9998
2 41785  97.7974  93.6905 0007935 274.9285  85.1016 14.71670502452468
PATHFINDER 1            
1 41787U 16059E   25069.52802962  .00001410  00000+0  26057-3 0  9992
2 41787  97.8187  85.1916 0027593 242.5223 117.3176 14.66648013451729
SCATSAT 1               
1 41790U 16059H   25069.76176278  .00002618  00000+0  36392-3 0  9990
2 41790  98.1825 122.5685 0055289 299.3940  60.1756 14.77716254 33106
GOKTURK 1A              
1 41875U 16073A   25070.15225242  .00000899  00000+0  18538-3 0  9992
2 41875  98.1245 326.6660 0001320  84.4473 275.6879 14.62784593441137
RESOURCESAT-2A          
1 41877U 16074A   25070.16936851  .00000304  00000+0  15782-3 0  9990
2 41877  98.6135 143.8306 0000241  10.5459 349.5724 14.21687888428525
CARTOSAT-2D             
1 41948U 17008A   25070.13477397  .00007925  00000+0  37844-3 0  9998
2 41948  97.4744 131.1642 0003888  64.9194 295.2444 15.19307934447277
SENTINEL-2B             
1 42063U 17013A   25070.20054420  .00000286  00000+0  12567-3 0  9997
2 42063  98.5629 146.6298 0001113 101.6805 258.4503 14.30822176418441
ZHUHAI-1 02 (CAS-4B)    
1 42759U 17034B   25070.21977598  .00044868  00000+0  77051-3 0  9996
2 42759  43.0107 135.5036 0016883  14.5842 345.5502 15.50268015428514
NUSAT-3 (MILANESAT)     
1 42760U 17034C   25070.16877670  .00079751  00000+0  93428-3 0  9997
2 42760  43.0013 108.5783 0019974  48.6740 311.5839 15.60335835428837
ZHUHAI-1 01 (CAS-4A)    
1 42761U 17034D   25070.24126930  .00047466  00000+0  79654-3 0  9996
2 42761  43.0143 133.2227 0018076  20.9641 339.1957 15.50871233428535
CARTOSAT-2E             
1 42767U 17036C   25070.15009588  .00007850  00000+0  37426-3 0  9997
2 42767  97.3995 130.8606 0003067 139.9320 220.2142 15.19365407427846
FORMOSAT-5              
1 42920U 17049A   25069.88326479  .00000481  00000+0  13339-3 0  9991
2 42920  98.2641 149.3841 0011978  65.8476 294.3970 14.50721314399497
SENTINEL-5P             
1 42969U 17064A   25069.82922336  .00000156  00000+0  94866-4 0  9993
2 42969  98.7501  11.3577 0000974  94.2719 265.8568 14.19574986383826
SKYSAT-C11              
1 42987U 17068A   25069.84314433  .00022991  00000+0  63411-3 0  9994
2 42987  97.3780 203.7493 0007064 102.4777 257.7258 15.37084721411661
SKYSAT-C10              
1 42988U 17068B   25069.84532555  .00011735  00000+0  37268-3 0  9997
2 42988  97.3898 200.7801 0006333   7.7859 352.3480 15.32789047411418
SKYSAT-C9               
1 42989U 17068C   25069.88798042  .00000931  00000+0  30224-4 0  9999
2 42989  97.3830 199.2397 0005977  33.2862 326.8756 15.34513103411623
SKYSAT-C8               
1 42990U 17068D   25069.85132200  .00016492  00000+0  56819-3 0  9992
2 42990  97.3916 199.7632 0001659 163.2586 196.8709 15.30097168411321
SKYSAT-C7               
1 42991U 17068E   25070.07895050  .00017420  00000+0  57559-3 0  9992
2 42991  97.3919 200.9987 0003024  78.7878 281.3703 15.31437605411425
SKYSAT-C6               
1 42992U 17068F   25069.86488065  .00016729  00000+0  56552-3 0  9995
2 42992  97.3954 201.7007 0005702  34.7081 325.4531 15.30696970411419
CARTOSAT-2F             
1 43111U 18004A   25070.18486266  .00007627  11330-7  36297-3 0  9995
2 43111  97.4670 131.6150 0000546 141.9994 218.1279 15.19217297386982
GAOFEN-1 02             
1 43259U 18031A   25070.16925594  .00001759  00000+0  25905-3 0  9996
2 43259  97.7840 134.7826 0005982  50.3974 309.7764 14.76573669374377
